ONEWEB-0233             
1 48795U 21045AE  25204.83145039 -.00000127  00000+0 -37144-3 0  9994
2 48795  87.9082 324.7221 0002137  90.7420 269.3955 13.15549619201124
ONEWEB-0190             
1 48796U 21045AF  25204.89496777 -.00000177  00000+0 -50299-3 0  9990
2 48796  87.9083 324.6740 0002641  88.6685 271.4748 13.15547249201200
ONEWEB-0236             
1 48797U 21045AG  25204.83633062 -.00000065  00000+0 -20644-3 0  9992
2 48797  87.9086 324.6947 0001772  96.6840 263.4492 13.15547293201081
ONEWEB-0248             
1 48798U 21045AH  25204.84902756  .00000048  00000+0  93573-4 0  9994
2 48798  87.9079 324.6475 0002174  81.0826 279.0550 13.15549960201248
ONEWEB-0225             
1 48799U 21045AJ  25204.87118745  .00000500  00000+0  12935-2 0  9999
2 48799  87.9078 324.6749 0002557  88.1479 271.9944 13.15557817201258
ONEWEB-0215             
1 48800U 21045AK  25204.84109230 -.00000030  00000+0 -11331-3 0  9998
2 48800  87.9076 324.6314 0002402  84.3438 275.7966 13.15547317201125
ONEWEB-0216             
1 48801U 21045AL  25204.77454085  .00000100  00000+0  23220-3 0  9998
2 48801  87.9076 324.6905 0002098 102.7403 257.3962 13.15547588201122
ONEWEB-0239             
1 48802U 21045AM  25204.85535665  .00000135  00000+0  32507-3 0  9998
2 48802  87.9087 324.6859 0002282  77.9577 282.1809 13.15547144202319
